H-2A R/B                
1 28932U 06002B   26201.92970028  .00006262  00000+0  29728-3 0  9996
2 28932  98.2603   0.8291 0051105 146.6791 213.7676 15.18503300114644
RESURS-DK 1             
1 29228U 06021A   26201.41611342  .00000982  00000+0  61107-4 0  9992
2 29228  69.9301 253.5278 0007419 265.4127  94.6192 15.13330043107601
CZ-4B R/B               
1 29507U 06046C   26201.87327252  .00003036  00000+0  15064-3 0  9996
2 29507  97.5433 246.3772 0033148 162.5657 197.6723 15.18008966 80241
CZ-2C R/B               
1 31114U 07010B   26201.87516849  .00000044  00000+0  39265-4 0  9993
2 31114  98.4120 308.5825 0057763 266.9060  92.5507 14.20282741998627
COSMO-SKYMED 1          
1 31598U 07023A   26201.95287999  .00002055  00000+0  18267-3 0  9995
2 31598  97.8855  34.0951 0001800  96.4397 263.7029 14.97240463 34847
COSMOS 2428             
1 31792U 07029A   26201.41772786  .00000302  00000+0  18778-3 0  9991
2 31792  70.9382 284.7069 0007280  70.9124 289.2785 14.12937996982842
SL-16 R/B               
1 31793U 07029B   26201.41379616  .00000304  00000+0  18206-3 0  9995
2 31793  70.9742 253.3825 0001910 258.3863 186.9746 14.14854858984143
KORONAS-FOTON           
1 33504U 09003A   26201.86353676  .00009635  00000+0  19365-3 0  9991
2 33504  82.4306 137.1137 0011668  44.5676 315.6509 15.46390634966301
CZ-2C R/B               
1 37731U 11030B   26201.87779955  .00000577  00000+0  78936-4 0  9999
2 37731  97.8672 156.6617 0050676 277.1385 140.4149 14.81538957809811
H-2A R/B                
1 38341U 12025E   26201.93874309  .00001267  00000+0  11766-3 0  9992
2 38341  98.4849 179.8748 0042720 235.5500 124.1679 14.95848600768132
SHIJIAN-16 (SJ-16)      
1 39358U 13057A   26201.88627557  .00003620  00000+0  35288-3 0  9992
2 39358  74.9734 292.8558 0015602 151.2086 208.9967 14.92680316691377
SL-4 R/B                
1 39679U 14021B   26201.88734378  .00007247  00000+0  15110-3 0  9991
2 39679  51.6068  45.5952 0089408 229.4679 129.8495 15.42556772676810
ALOS-2                  
1 39766U 14029A   26201.75270015  .00000566  00000+0  82710-4 0  9993
2 39766  97.9225 298.4370 0001588  91.3293 268.8100 14.79473928656544
YAOGAN-29               
1 41038U 15069A   26201.97902111  .00000586  00000+0  78519-4 0  9990
2 41038  98.0020 230.6633 0000126  29.0162 331.1059 14.83110236575636
ASTRO-H (HITOMI)        
1 41337U 16012A   26201.27108818  .00001284  00000+0  70049-4 0  9992
2 41337  30.9974 220.4992 0009671 226.2972 133.6865 15.10644305572299
HXMT (HUIYAN)           
1 42758U 17034A   26201.74457101  .00002637  00000+0  13479-3 0  9995
2 42758  43.0152 356.1492 0031551 355.7121   4.3454 15.18716792502769
SAOCOM 1A               
1 43641U 18076A   26201.95885253  .00000663  00000+0  89812-4 0  9992
2 43641  97.8895  28.2169 0001503  87.2232 272.9153 14.82151724421109
H-2A R/B                
1 43682U 18084L   26201.59491553  .00012172  00000+0  24720-3 0  9996
2 43682  98.8522  87.8125 0020269 280.1764  79.7195 15.46329983426287
SAOCOM 1B               
1 46265U 20059A   26201.92254469 -.00000153  00000+0 -12718-4 0  9994
2 46265  97.8898  27.2776 0001490  84.9250 275.2133 14.82143908318484
CSS (TIANHE)            
1 48274U 21035A   26201.79118142  .00010456  00000+0  13855-3 0  9990
2 48274  41.4681 117.9120 0001779 306.1068  53.9605 15.58223807298413
COSMOS 2550             
1 48865U 21056A   26201.93226093  .00003602  00000+0  11513-3 0  9994
2 48865  67.1441 357.8280 0008544 269.4482  90.5693 15.33864318283899
CZ-2C R/B               
1 52794U 22058K   26201.42155585  .00027309  00000+0  28001-3 0  9994
2 52794  50.1861 350.2809 0030070  44.5445 315.7940 15.64135343230844
CZ-2C R/B               
1 54039U 22132E   26201.91931584  .00053509  00000+0  35165-3 0  9996
2 54039  97.2894 210.5531 0008522 314.4541  45.6027 15.75513880211256
GSLV R/B                
1 54149U 22138AN  26201.80036061  .00001562  00000+0  13127-3 0  9994
2 54149  87.3815 121.6972 0022861  33.5052 326.7621 14.97398927203845
XRISM                   
1 57800U 23137A   26201.91107709  .00002880  00000+0  15499-3 0  9999
2 57800  31.0012 141.1056 0007843 302.9525  57.0360 15.12695950157978
ACS3                    
1 59588U 24077B   26200.70021256  .00003608  00000+0  25000-2 0  9993
2 59588  97.1775 112.2879 0129376  31.3060 329.5729 13.95428126112578
SPACEMOBILE-003         
1 61045U 24163A   26201.14245972  .00001670  00000+0  89590-4 0  9995
2 61045  52.9674 157.8928 0004241 210.2897 149.7852 15.20721715102786
SPACEMOBILE-005         
1 61046U 24163B   26201.91454967 -.00000847  00000+0 -23259-4 0  9994
2 61046  52.9746 154.2965 0008374 212.0613 147.9872 15.20706249102895
SPACEMOBILE-001         
1 61047U 24163C   26201.25568385 -.00000135  00000+0  86599-5 0  9998
2 61047  52.9710 157.0335 0006953 209.4162 150.6442 15.20700764102798
SPACEMOBILE-002         
1 61048U 24163D   26200.18806198  .00010534  00000+0  48876-3 0  9994
2 61048  52.9793 161.9891 0004751 205.9492 154.1265 15.20578455102637
