OBJECT_NAME,OBJECT_ID,EPOCH,MEAN_MOTION,ECCENTRICITY,INCLINATION,RA_OF_ASC_NODE,ARG_OF_PERICENTER,MEAN_ANOMALY,EPHEMERIS_TYPE,CLASSIFICATION_TYPE,NORAD_CAT_ID,ELEMENT_SET_NO,REV_AT_EPOCH,BSTAR,MEAN_MOTION_DOT,MEAN_MOTION_DDOT
H-2A R/B,2006-002B,2026-07-20T22:18:46.104192,15.18503300,.00511053,98.2603,0.8291,146.6791,213.7676,0,U,28932,999,11464,.29727584E-3,.6262E-4,0
RESURS-DK 1,2006-021A,2026-07-20T09:59:12.199488,15.13330043,.00074193,69.9301,253.5278,265.4127,94.6192,0,U,29228,999,10760,.61106831E-4,.982E-5,0
CZ-4B R/B,2006-046C,2026-07-20T20:57:30.745728,15.18008966,.00331486,97.5433,246.3772,162.5657,197.6723,0,U,29507,999,8024,.15064139E-3,.3036E-4,0
CZ-2C R/B,2007-010B,2026-07-20T21:00:14.557536,14.20282741,.00577638,98.4120,308.5825,266.9060,92.5507,0,U,31114,999,99862,.39265459E-4,.44E-6,0
COSMO-SKYMED 1,2007-023A,2026-07-20T22:52:08.831136,14.97240463,.00018002,97.8855,34.0951,96.4397,263.7029,0,U,31598,999,3484,.18267245E-3,.2055E-4,0
COSMOS 2428,2007-029A,2026-07-20T10:01:31.687104,14.12937996,.00072806,70.9382,284.7069,70.9124,289.2785,0,U,31792,999,98284,.1877841E-3,.302E-5,0
SL-16 R/B,2007-029B,2026-07-20T09:55:51.988224,14.14854858,.000191,70.9742,253.3825,258.3863,186.9746,0,U,31793,999,98414,.18205756E-3,.304E-5,0
KORONAS-FOTON,2009-003A,2026-07-20T20:43:29.576064,15.46390634,.00116681,82.4306,137.1137,44.5676,315.6509,0,U,33504,999,96630,.19365247E-3,.9635E-4,0
CZ-2C R/B,2011-030B,2026-07-20T21:04:01.881120,14.81538957,.00506764,97.8672,156.6617,277.1385,140.4149,0,U,37731,999,80981,.78935752E-4,.577E-5,0
H-2A R/B,2012-025E,2026-07-20T22:31:47.402976,14.95848600,.004272,98.4849,179.8748,235.5500,124.1679,0,U,38341,999,76813,.11766039E-3,.1267E-4,0
SHIJIAN-16 (SJ-16),2013-057A,2026-07-20T21:16:14.209248,14.92680316,.00156029,74.9734,292.8558,151.2086,208.9967,0,U,39358,999,69137,.35288388E-3,.362E-4,0
SL-4 R/B,2014-021B,2026-07-20T21:17:46.502592,15.42556772,.00894083,51.6068,45.5952,229.4679,129.8495,0,U,39679,999,67681,.15110346E-3,.7247E-4,0
ALOS-2,2014-029A,2026-07-20T18:03:53.292960,14.79473928,.00015881,97.9225,298.4370,91.3293,268.8100,0,U,39766,999,65654,.82710118E-4,.566E-5,0
YAOGAN-29,2015-069A,2026-07-20T23:29:47.423904,14.83110236,.00001264,98.0020,230.6633,29.0162,331.1059,0,U,41038,999,57563,.78518789E-4,.586E-5,0
ASTRO-H (HITOMI),2016-012A,2026-07-20T06:30:22.018752,15.10644305,.00096717,30.9974,220.4992,226.2972,133.6865,0,U,41337,999,57229,.70049003E-4,.1284E-4,0
HXMT (HUIYAN),2017-034A,2026-07-20T17:52:10.935264,15.18716792,.00315514,43.0152,356.1492,355.7121,4.3454,0,U,42758,999,50276,.13478751E-3,.2637E-4,0
SAOCOM 1A,2018-076A,2026-07-20T23:00:44.858592,14.82151724,.0001503,97.8895,28.2169,87.2232,272.9153,0,U,43641,999,42110,.89812316E-4,.663E-5,0
H-2A R/B,2018-084L,2026-07-20T14:16:40.701792,15.46329983,.00202697,98.8522,87.8125,280.1764,79.7195,0,U,43682,999,42628,.24720332E-3,.12172E-3,0
SAOCOM 1B,2020-059A,2026-07-20T22:08:27.861216,14.82143908,.00014907,97.8898,27.2776,84.9250,275.2133,0,U,46265,999,31848,-.12717999E-4,-.153E-5,0
CSS (TIANHE),2021-035A,2026-07-20T18:59:18.074688,15.58223807,.0001779,41.4681,117.9120,306.1068,53.9605,0,U,48274,999,29841,.13855012E-3,.10456E-3,0
COSMOS 2550,2021-056A,2026-07-20T22:22:27.344352,15.33864318,.00085445,67.1441,357.8280,269.4482,90.5693,0,U,48865,999,28389,.1151313E-3,.3602E-4,0
CZ-2C R/B,2022-058K,2026-07-20T10:07:02.425440,15.64135343,.00300707,50.1861,350.2809,44.5445,315.7940,0,U,52794,999,23084,.28001206E-3,.27309E-3,0
CZ-2C R/B,2022-132E,2026-07-20T22:03:48.888576,15.75513880,.00085228,97.2894,210.5531,314.4541,45.6027,0,U,54039,999,21125,.35165266E-3,.53509E-3,0
GSLV R/B,2022-138AN,2026-07-20T19:12:31.156704,14.97398927,.00228614,87.3815,121.6972,33.5052,326.7621,0,U,54149,999,20384,.13126861E-3,.1562E-4,0
XRISM,2023-137A,2026-07-20T21:51:57.060576,15.12695950,.00078431,31.0012,141.1056,302.9525,57.0360,0,U,57800,999,15797,.15499277E-3,.288E-4,0
ACS3,2024-077B,2026-07-19T16:48:18.365184,13.95428126,.01293761,97.1775,112.2879,31.3060,329.5729,0,U,59588,999,11257,.25000287E-2,.3608E-4,0
SPACEMOBILE-003,2024-163A,2026-07-20T03:25:08.519808,15.20721715,.0004241,52.9674,157.8928,210.2897,149.7852,0,U,61045,999,10278,.89590351E-4,.167E-4,0
SPACEMOBILE-005,2024-163B,2026-07-20T21:56:57.091488,15.20706249,.00083748,52.9746,154.2965,212.0613,147.9872,0,U,61046,999,10289,-.23258846E-4,-.847E-5,0
SPACEMOBILE-001,2024-163C,2026-07-20T06:08:11.084640,15.20700764,.00069537,52.9710,157.0335,209.4162,150.6442,0,U,61047,999,10279,.8659876E-5,-.135E-5,0
SPACEMOBILE-002,2024-163D,2026-07-19T04:30:48.555072,15.20578455,.00047519,52.9793,161.9891,205.9492,154.1265,0,U,61048,999,10263,.48876039E-3,.10534E-3,0
